{
  "type": "FeatureCollection",
  "generated_at": "2026-07-27T08:01:05Z",
  "features": [
    {
      "type": "Feature",
      "properties": {
        "osm_id": 24976623,
        "name": "Erdő utca",
        "source": "OpenStreetMap / Overpass"
      },
      "geometry": {
        "type": "LineString",
        "coordinates": [
          [
            16.4865991,
            47.35074
          ],
          [
            16.4870357,
            47.3506266
          ],
          [
            16.4872931,
            47.350523
          ],
          [
            16.4875554,
            47.3503581
          ],
          [
            16.487648,
            47.3502687
          ],
          [
            16.4878807,
            47.3501256
          ],
          [
            16.4881549,
            47.3499985
          ],
          [
            16.4883153,
            47.3499493
          ]
        ]
      }
    },
    {
      "type": "Feature",
      "properties": {
        "osm_id": 24976909,
        "name": "Dózsa György utca",
        "source": "OpenStreetMap / Overpass"
      },
      "geometry": {
        "type": "LineString",
        "coordinates": [
          [
            16.4942339,
            47.3445676
          ],
          [
            16.4945594,
            47.3448397
          ],
          [
            16.4948772,
            47.34518
          ],
          [
            16.4949406,
            47.3453103
          ],
          [
            16.4951154,
            47.345605
          ],
          [
            16.4953317,
            47.3457253
          ],
          [
            16.4954058,
            47.3457628
          ],
          [
            16.495526,
            47.3458104
          ],
          [
            16.4961326,
            47.3462649
          ],
          [
            16.4962482,
            47.3463375
          ]
        ]
      }
    },
    {
      "type": "Feature",
      "properties": {
        "osm_id": 24976916,
        "name": "Erdő utca",
        "source": "OpenStreetMap / Overpass"
      },
      "geometry": {
        "type": "LineString",
        "coordinates": [
          [
            16.4883153,
            47.3499493
          ],
          [
            16.4884624,
            47.3496966
          ],
          [
            16.4886573,
            47.3493139
          ],
          [
            16.4887436,
            47.3491719
          ],
          [
            16.488793,
            47.349069
          ],
          [
            16.4888276,
            47.3489701
          ],
          [
            16.4888416,
            47.3488769
          ],
          [
            16.4887977,
            47.3488823
          ],
          [
            16.4887392,
            47.3488963
          ],
          [
            16.4885975,
            47.3489681
          ],
          [
            16.488445,
            47.3490618
          ],
          [
            16.4883782,
            47.3490901
          ],
          [
            16.4883021,
            47.3490962
          ],
          [
            16.4882246,
            47.3490837
          ],
          [
            16.4881526,
            47.349048
          ],
          [
            16.4880514,
            47.3489889
          ],
          [
            16.4879711,
            47.3489571
          ],
          [
            16.4878534,
            47.3489571
          ],
          [
            16.487208,
            47.3485696
          ],
          [
            16.4867623,
            47.3483273
          ],
          [
            16.4866697,
            47.3482703
          ],
          [
            16.4864937,
            47.3481591
          ],
          [
            16.4864111,
            47.3480814
          ],
          [
            16.4863615,
            47.3480214
          ]
        ]
      }
    },
    {
      "type": "Feature",
      "properties": {
        "osm_id": 28219904,
        "name": "Strand sétány",
        "source": "OpenStreetMap / Overpass"
      },
      "geometry": {
        "type": "LineString",
        "coordinates": [
          [
            16.5527478,
            47.3929309
          ],
          [
            16.5524145,
            47.392736
          ],
          [
            16.5505812,
            47.391698
          ],
          [
            16.5486983,
            47.3906925
          ]
        ]
      }
    },
    {
      "type": "Feature",
      "properties": {
        "osm_id": 28219956,
        "name": "Dózsa György utca",
        "source": "OpenStreetMap / Overpass"
      },
      "geometry": {
        "type": "LineString",
        "coordinates": [
          [
            16.546166,
            47.3933241
          ],
          [
            16.5464753,
            47.3934332
          ]
        ]
      }
    },
    {
      "type": "Feature",
      "properties": {
        "osm_id": 28219971,
        "name": "Dózsa György utca",
        "source": "OpenStreetMap / Overpass"
      },
      "geometry": {
        "type": "LineString",
        "coordinates": [
          [
            16.5433694,
            47.3927403
          ],
          [
            16.5439958,
            47.3927947
          ],
          [
            16.544144,
            47.3928054
          ],
          [
            16.5442979,
            47.3928216
          ],
          [
            16.5445605,
            47.3928536
          ],
          [
            16.5446362,
            47.3928649
          ]
        ]
      }
    },
    {
      "type": "Feature",
      "properties": {
        "osm_id": 28710029,
        "name": "Kórház utca",
        "source": "OpenStreetMap / Overpass"
      },
      "geometry": {
        "type": "LineString",
        "coordinates": [
          [
            16.55231,
            47.3889488
          ],
          [
            16.5505453,
            47.3883454
          ],
          [
            16.5503548,
            47.3882534
          ],
          [
            16.5502244,
            47.3881477
          ]
        ]
      }
    },
    {
      "type": "Feature",
      "properties": {
        "osm_id": 35028034,
        "name": "Dózsa György utca",
        "source": "OpenStreetMap / Overpass"
      },
      "geometry": {
        "type": "LineString",
        "coordinates": [
          [
            16.5416999,
            47.3919167
          ],
          [
            16.5419934,
            47.3920569
          ],
          [
            16.5424577,
            47.3922621
          ],
          [
            16.542859,
            47.3924578
          ],
          [
            16.5432749,
            47.3926726
          ],
          [
            16.5433694,
            47.3927403
          ]
        ]
      }
    },
    {
      "type": "Feature",
      "properties": {
        "osm_id": 46731891,
        "name": "Kórház utca",
        "source": "OpenStreetMap / Overpass"
      },
      "geometry": {
        "type": "LineString",
        "coordinates": [
          [
            16.5502244,
            47.3881477
          ],
          [
            16.5501187,
            47.3881791
          ],
          [
            16.5499705,
            47.3881686
          ],
          [
            16.5498152,
            47.3882206
          ]
        ]
      }
    },
    {
      "type": "Feature",
      "properties": {
        "osm_id": 46731894,
        "name": "Rómer Flóris utca",
        "source": "OpenStreetMap / Overpass"
      },
      "geometry": {
        "type": "LineString",
        "coordinates": [
          [
            16.5394427,
            47.3837473
          ],
          [
            16.5422489,
            47.3847169
          ],
          [
            16.542344,
            47.3847498
          ],
          [
            16.542428,
            47.3847807
          ],
          [
            16.5426228,
            47.3848496
          ],
          [
            16.542859,
            47.3849335
          ],
          [
            16.5430191,
            47.3849877
          ],
          [
            16.54322,
            47.3850553
          ],
          [
            16.5434679,
            47.3851454
          ],
          [
            16.5436944,
            47.3852279
          ],
          [
            16.5438125,
            47.3852796
          ],
          [
            16.5439356,
            47.385341
          ],
          [
            16.5440708,
            47.3854251
          ],
          [
            16.5441506,
            47.3854789
          ]
        ]
      }
    },
    {
      "type": "Feature",
      "properties": {
        "osm_id": 47053162,
        "name": "Kálvária utca",
        "source": "OpenStreetMap / Overpass"
      },
      "geometry": {
        "type": "LineString",
        "coordinates": [
          [
            16.5379888,
            47.3950728
          ],
          [
            16.5379355,
            47.3952301
          ],
          [
            16.5378209,
            47.3955002
          ],
          [
            16.5376107,
            47.3959214
          ],
          [
            16.5374282,
            47.3960497
          ],
          [
            16.5373862,
            47.3960792
          ],
          [
            16.5372369,
            47.3961755
          ],
          [
            16.5371717,
            47.3962133
          ],
          [
            16.5370678,
            47.3962608
          ],
          [
            16.5369802,
            47.3962972
          ],
          [
            16.5368884,
            47.3963267
          ],
          [
            16.5365213,
            47.3964182
          ],
          [
            16.5363796,
            47.3964511
          ],
          [
            16.5361161,
            47.3965116
          ],
          [
            16.5359986,
            47.3965879
          ],
          [
            16.5359448,
            47.3966357
          ],
          [
            16.5359251,
            47.3966621
          ],
          [
            16.5358481,
            47.3967545
          ]
        ]
      }
    },
    {
      "type": "Feature",
      "properties": {
        "osm_id": 47053163,
        "name": "Dózsa György utca",
        "source": "OpenStreetMap / Overpass"
      },
      "geometry": {
        "type": "LineString",
        "coordinates": [
          [
            16.5464753,
            47.3934332
          ],
          [
            16.546671,
            47.393488
          ]
        ]
      }
    },
    {
      "type": "Feature",
      "properties": {
        "osm_id": 47053169,
        "name": "Károlyi Mihály utca",
        "source": "OpenStreetMap / Overpass"
      },
      "geometry": {
        "type": "LineString",
        "coordinates": [
          [
            16.533356,
            47.3839712
          ],
          [
            16.5339652,
            47.383614
          ],
          [
            16.5345651,
            47.3832002
          ],
          [
            16.5364136,
            47.3814878
          ],
          [
            16.5372836,
            47.3806767
          ],
          [
            16.5374149,
            47.3805592
          ]
        ]
      }
    },
    {
      "type": "Feature",
      "properties": {
        "osm_id": 47053171,
        "name": "Bersek József utca",
        "source": "OpenStreetMap / Overpass"
      },
      "geometry": {
        "type": "LineString",
        "coordinates": [
          [
            16.531803,
            47.3861266
          ],
          [
            16.5317496,
            47.3861544
          ],
          [
            16.5313613,
            47.3862181
          ],
          [
            16.530946,
            47.3862715
          ],
          [
            16.5304673,
            47.3862948
          ],
          [
            16.5303463,
            47.386288
          ],
          [
            16.5300167,
            47.3862778
          ],
          [
            16.5293406,
            47.3862303
          ]
        ]
      }
    },
    {
      "type": "Feature",
      "properties": {
        "osm_id": 47053174,
        "name": "Mélyút utca",
        "source": "OpenStreetMap / Overpass"
      },
      "geometry": {
        "type": "LineString",
        "coordinates": [
          [
            16.5312302,
            47.3896228
          ],
          [
            16.5312742,
            47.3896827
          ],
          [
            16.5314722,
            47.389761
          ],
          [
            16.5317866,
            47.3898502
          ],
          [
            16.532469,
            47.3900016
          ],
          [
            16.5333108,
            47.3901551
          ],
          [
            16.5337019,
            47.3901676
          ],
          [
            16.5340333,
            47.390134
          ],
          [
            16.5344189,
            47.390047
          ],
          [
            16.5346688,
            47.3899686
          ],
          [
            16.5350832,
            47.3899559
          ],
          [
            16.5358502,
            47.3900321
          ],
          [
            16.5361297,
            47.3900076
          ]
        ]
      }
    },
    {
      "type": "Feature",
      "properties": {
        "osm_id": 51175929,
        "name": "Meskó utca",
        "source": "OpenStreetMap / Overpass"
      },
      "geometry": {
        "type": "LineString",
        "coordinates": [
          [
            16.5385476,
            47.3953718
          ],
          [
            16.5391566,
            47.3961253
          ],
          [
            16.5396479,
            47.3967272
          ],
          [
            16.5397214,
            47.3968173
          ],
          [
            16.5398594,
            47.3969475
          ]
        ]
      }
    },
    {
      "type": "Feature",
      "properties": {
        "osm_id": 51176105,
        "name": "Malomárok utca",
        "source": "OpenStreetMap / Overpass"
      },
      "geometry": {
        "type": "LineString",
        "coordinates": [
          [
            16.5427585,
            47.3953086
          ],
          [
            16.5422699,
            47.3956283
          ],
          [
            16.5420162,
            47.3958723
          ],
          [
            16.5418051,
            47.3961477
          ],
          [
            16.5415471,
            47.3965316
          ],
          [
            16.5413086,
            47.3967853
          ],
          [
            16.5412106,
            47.3968739
          ],
          [
            16.54109,
            47.3969633
          ],
          [
            16.5403876,
            47.3974035
          ]
        ]
      }
    },
    {
      "type": "Feature",
      "properties": {
        "osm_id": 51178648,
        "name": "Táncsics Mihály utca",
        "source": "OpenStreetMap / Overpass"
      },
      "geometry": {
        "type": "LineString",
        "coordinates": [
          [
            16.547248,
            47.3876982
          ],
          [
            16.5472159,
            47.3877457
          ],
          [
            16.5467228,
            47.3880258
          ],
          [
            16.5463827,
            47.3882193
          ],
          [
            16.5462257,
            47.3883403
          ],
          [
            16.5459623,
            47.3886201
          ],
          [
            16.545869,
            47.3887214
          ],
          [
            16.5456071,
            47.3889988
          ]
        ]
      }
    },
    {
      "type": "Feature",
      "properties": {
        "osm_id": 51178680,
        "name": "Liszt Ferenc utca",
        "source": "OpenStreetMap / Overpass"
      },
      "geometry": {
        "type": "LineString",
        "coordinates": [
          [
            16.5465972,
            47.3873269
          ],
          [
            16.5460443,
            47.3875327
          ],
          [
            16.5459218,
            47.3875566
          ],
          [
            16.5458094,
            47.3875609
          ],
          [
            16.5456363,
            47.3875441
          ],
          [
            16.5445053,
            47.3872326
          ],
          [
            16.5440766,
            47.3871164
          ]
        ]
      }
    },
    {
      "type": "Feature",
      "properties": {
        "osm_id": 51178694,
        "name": "Kórház utca",
        "source": "OpenStreetMap / Overpass"
      },
      "geometry": {
        "type": "LineString",
        "coordinates": [
          [
            16.5502244,
            47.3881477
          ],
          [
            16.550197,
            47.3880352
          ],
          [
            16.5501828,
            47.3878256
          ],
          [
            16.5501683,
            47.3876922
          ],
          [
            16.5501346,
            47.3876049
          ],
          [
            16.5500827,
            47.3875147
          ],
          [
            16.5499225,
            47.387364
          ]
        ]
      }
    },
    {
      "type": "Feature",
      "properties": {
        "osm_id": 51179858,
        "name": "Malomárok utca",
        "source": "OpenStreetMap / Overpass"
      },
      "geometry": {
        "type": "LineString",
        "coordinates": [
          [
            16.5458941,
            47.3932357
          ],
          [
            16.5458933,
            47.3935002
          ],
          [
            16.5458763,
            47.3936155
          ],
          [
            16.5457932,
            47.3937061
          ],
          [
            16.5455623,
            47.3938462
          ],
          [
            16.5446962,
            47.3942531
          ],
          [
            16.5443735,
            47.3944189
          ],
          [
            16.5441897,
            47.3944921
          ],
          [
            16.544019,
            47.3945602
          ],
          [
            16.5435407,
            47.3947912
          ]
        ]
      }
    },
    {
      "type": "Feature",
      "properties": {
        "osm_id": 72671101,
        "name": "Panoráma körút",
        "source": "OpenStreetMap / Overpass"
      },
      "geometry": {
        "type": "LineString",
        "coordinates": [
          [
            16.5236808,
            47.3776233
          ],
          [
            16.5237592,
            47.37753
          ],
          [
            16.5238158,
            47.3774901
          ],
          [
            16.523868,
            47.3774598
          ],
          [
            16.523995,
            47.3773954
          ],
          [
            16.5242478,
            47.377233
          ],
          [
            16.524439,
            47.3771369
          ],
          [
            16.5246159,
            47.3770931
          ],
          [
            16.5249094,
            47.3770423
          ],
          [
            16.5254686,
            47.377073
          ],
          [
            16.5256028,
            47.3770406
          ],
          [
            16.5256335,
            47.3770172
          ],
          [
            16.5256529,
            47.3769241
          ],
          [
            16.5256057,
            47.3768664
          ],
          [
            16.5254461,
            47.3768112
          ]
        ]
      }
    },
    {
      "type": "Feature",
      "properties": {
        "osm_id": 72671102,
        "name": "Hermina utca",
        "source": "OpenStreetMap / Overpass"
      },
      "geometry": {
        "type": "LineString",
        "coordinates": [
          [
            16.5262617,
            47.3785259
          ],
          [
            16.5265335,
            47.3793062
          ],
          [
            16.5268717,
            47.3795517
          ],
          [
            16.5271831,
            47.3798025
          ],
          [
            16.527216,
            47.3798681
          ],
          [
            16.5280952,
            47.3803547
          ],
          [
            16.5289571,
            47.3808813
          ],
          [
            16.5292084,
            47.3810348
          ]
        ]
      }
    },
    {
      "type": "Feature",
      "properties": {
        "osm_id": 97556745,
        "name": "Dózsa György utca",
        "source": "OpenStreetMap / Overpass"
      },
      "geometry": {
        "type": "LineString",
        "coordinates": [
          [
            16.5458941,
            47.3932357
          ],
          [
            16.546166,
            47.3933241
          ]
        ]
      }
    },
    {
      "type": "Feature",
      "properties": {
        "osm_id": 97556746,
        "name": "Táncsics Mihály utca",
        "source": "OpenStreetMap / Overpass"
      },
      "geometry": {
        "type": "LineString",
        "coordinates": [
          [
            16.5454223,
            47.3892117
          ],
          [
            16.5449301,
            47.3897845
          ],
          [
            16.5447233,
            47.3900729
          ]
        ]
      }
    },
    {
      "type": "Feature",
      "properties": {
        "osm_id": 97556752,
        "name": "Kálvária utca",
        "source": "OpenStreetMap / Overpass"
      },
      "geometry": {
        "type": "LineString",
        "coordinates": [
          [
            16.5358481,
            47.3967545
          ],
          [
            16.5357181,
            47.3968549
          ],
          [
            16.5356347,
            47.3969238
          ],
          [
            16.5354607,
            47.3971082
          ],
          [
            16.5352264,
            47.3973543
          ],
          [
            16.5342737,
            47.3982584
          ]
        ]
      }
    },
    {
      "type": "Feature",
      "properties": {
        "osm_id": 113741473,
        "name": "Tüskevár utca",
        "source": "OpenStreetMap / Overpass"
      },
      "geometry": {
        "type": "LineString",
        "coordinates": [
          [
            16.5463012,
            47.3842788
          ],
          [
            16.546155,
            47.3841729
          ],
          [
            16.5461226,
            47.3841494
          ],
          [
            16.5452277,
            47.3837507
          ],
          [
            16.5449165,
            47.3836092
          ],
          [
            16.5446237,
            47.3835148
          ]
        ]
      }
    },
    {
      "type": "Feature",
      "properties": {
        "osm_id": 113741477,
        "name": "Sáncárok utca",
        "source": "OpenStreetMap / Overpass"
      },
      "geometry": {
        "type": "LineString",
        "coordinates": [
          [
            16.5486511,
            47.3839954
          ],
          [
            16.548126,
            47.3845326
          ],
          [
            16.547399,
            47.3854914
          ],
          [
            16.5470027,
            47.3860469
          ],
          [
            16.5468918,
            47.3862239
          ],
          [
            16.5467164,
            47.3865013
          ],
          [
            16.546625,
            47.3866464
          ],
          [
            16.5465992,
            47.3866873
          ],
          [
            16.5463971,
            47.387008
          ],
          [
            16.5463864,
            47.3870552
          ],
          [
            16.5463918,
            47.3871133
          ],
          [
            16.5465972,
            47.3873269
          ]
        ]
      }
    },
    {
      "type": "Feature",
      "properties": {
        "osm_id": 128004000,
        "name": "Arborétum utca",
        "source": "OpenStreetMap / Overpass"
      },
      "geometry": {
        "type": "LineString",
        "coordinates": [
          [
            16.5316009,
            47.3893777
          ],
          [
            16.5303836,
            47.3889868
          ],
          [
            16.529468,
            47.388622
          ],
          [
            16.5293368,
            47.3885104
          ],
          [
            16.5293556,
            47.3884363
          ],
          [
            16.5295143,
            47.3883278
          ],
          [
            16.5299195,
            47.3880303
          ],
          [
            16.5304572,
            47.3875312
          ],
          [
            16.5306635,
            47.3873721
          ]
        ]
      }
    },
    {
      "type": "Feature",
      "properties": {
        "osm_id": 128005772,
        "name": "Panoráma körút",
        "source": "OpenStreetMap / Overpass"
      },
      "geometry": {
        "type": "LineString",
        "coordinates": [
          [
            16.5254686,
            47.377073
          ],
          [
            16.5260393,
            47.3770992
          ]
        ]
      }
    },
    {
      "type": "Feature",
      "properties": {
        "osm_id": 128005777,
        "name": "Panoráma körút",
        "source": "OpenStreetMap / Overpass"
      },
      "geometry": {
        "type": "LineString",
        "coordinates": [
          [
            16.5254461,
            47.3768112
          ],
          [
            16.5256852,
            47.3768514
          ],
          [
            16.5257744,
            47.3769071
          ],
          [
            16.5258634,
            47.3770207
          ],
          [
            16.5259331,
            47.377062
          ],
          [
            16.5260393,
            47.3770992
          ],
          [
            16.5264058,
            47.3771312
          ],
          [
            16.526746,
            47.3771097
          ],
          [
            16.5269917,
            47.3770657
          ],
          [
            16.5272295,
            47.3769835
          ],
          [
            16.5274519,
            47.3768839
          ],
          [
            16.5278106,
            47.3766692
          ],
          [
            16.5279905,
            47.3765174
          ],
          [
            16.5280741,
            47.3763982
          ],
          [
            16.5280964,
            47.37628
          ],
          [
            16.5280736,
            47.3761347
          ],
          [
            16.5277908,
            47.3757709
          ],
          [
            16.5277183,
            47.3756384
          ],
          [
            16.5275735,
            47.375222
          ],
          [
            16.5275259,
            47.3751111
          ],
          [
            16.5274516,
            47.3749942
          ],
          [
            16.5273026,
            47.3748442
          ],
          [
            16.526927,
            47.3745432
          ],
          [
            16.5267503,
            47.3744321
          ],
          [
            16.5265683,
            47.3743402
          ],
          [
            16.5261119,
            47.3741646
          ],
          [
            16.525976,
            47.3741045
          ],
          [
            16.525902,
            47.3740575
          ],
          [
            16.5258555,
            47.3739921
          ],
          [
            16.5258537,
            47.3739115
          ],
          [
            16.5258825,
            47.3738544
          ],
          [
            16.5259561,
            47.3738056
          ],
          [
            16.5260918,
            47.3737661
          ],
          [
            16.5262188,
            47.3737649
          ],
          [
            16.5263423,
            47.3737852
          ],
          [
            16.5264975,
            47.3738282
          ],
          [
            16.5266939,
            47.3738928
          ],
          [
            16.5268796,
            47.3739646
          ],
          [
            16.5273219,
            47.3741844
          ],
          [
            16.5281464,
            47.3746559
          ],
          [
            16.5288268,
            47.3751504
          ],
          [
            16.5297885,
            47.3759106
          ]
        ]
      }
    },
    {
      "type": "Feature",
      "properties": {
        "osm_id": 128005781,
        "name": "Panoráma körút",
        "source": "OpenStreetMap / Overpass"
      },
      "geometry": {
        "type": "LineString",
        "coordinates": [
          [
            16.5308148,
            47.3767634
          ],
          [
            16.5305613,
            47.3768408
          ],
          [
            16.5301069,
            47.3770411
          ],
          [
            16.5297697,
            47.3771373
          ],
          [
            16.5292915,
            47.3772736
          ],
          [
            16.5288156,
            47.3773988
          ],
          [
            16.5281992,
            47.3776591
          ],
          [
            16.5275012,
            47.3779612
          ],
          [
            16.527082,
            47.3781249
          ],
          [
            16.526899,
            47.3781805
          ],
          [
            16.5267901,
            47.3781589
          ],
          [
            16.5267508,
            47.378124
          ],
          [
            16.5267659,
            47.3780479
          ],
          [
            16.5268232,
            47.3779887
          ],
          [
            16.5272786,
            47.3778215
          ],
          [
            16.5275398,
            47.377696
          ],
          [
            16.5279289,
            47.3774116
          ],
          [
            16.528046,
            47.3772798
          ],
          [
            16.5282813,
            47.3770751
          ],
          [
            16.5285897,
            47.376919
          ],
          [
            16.5287634,
            47.3768441
          ],
          [
            16.5288388,
            47.3767739
          ],
          [
            16.5288753,
            47.3767038
          ],
          [
            16.5287944,
            47.3766738
          ],
          [
            16.5287003,
            47.3766763
          ],
          [
            16.5285785,
            47.3767447
          ],
          [
            16.5284913,
            47.3768059
          ],
          [
            16.5284043,
            47.3768562
          ],
          [
            16.5282961,
            47.376923
          ],
          [
            16.5280934,
            47.3770243
          ],
          [
            16.5277143,
            47.3772534
          ],
          [
            16.5274667,
            47.3773711
          ],
          [
            16.5271431,
            47.377483
          ],
          [
            16.5261916,
            47.3776044
          ],
          [
            16.525877,
            47.3776239
          ],
          [
            16.5255856,
            47.377574
          ],
          [
            16.5247841,
            47.3773786
          ],
          [
            16.5245888,
            47.3773572
          ],
          [
            16.5244325,
            47.3773726
          ],
          [
            16.5242832,
            47.3773976
          ],
          [
            16.5241219,
            47.3774763
          ],
          [
            16.5240094,
            47.3775688
          ],
          [
            16.5239514,
            47.3776361
          ],
          [
            16.5238376,
            47.3776759
          ],
          [
            16.5237264,
            47.3776707
          ],
          [
            16.5236808,
            47.3776233
          ]
        ]
      }
    },
    {
      "type": "Feature",
      "properties": {
        "osm_id": 128005927,
        "name": "Kórház utca",
        "source": "OpenStreetMap / Overpass"
      },
      "geometry": {
        "type": "LineString",
        "coordinates": [
          [
            16.5546634,
            47.3894024
          ],
          [
            16.5544517,
            47.3894248
          ],
          [
            16.5542404,
            47.3894467
          ],
          [
            16.554017,
            47.3894531
          ],
          [
            16.5538152,
            47.3894416
          ],
          [
            16.5535588,
            47.3894071
          ],
          [
            16.5533415,
            47.3893378
          ],
          [
            16.55231,
            47.3889488
          ]
        ]
      }
    },
    {
      "type": "Feature",
      "properties": {
        "osm_id": 128005931,
        "name": "Liszt Ferenc utca",
        "source": "OpenStreetMap / Overpass"
      },
      "geometry": {
        "type": "LineString",
        "coordinates": [
          [
            16.5465972,
            47.3873269
          ],
          [
            16.5467892,
            47.3874204
          ],
          [
            16.5471953,
            47.3876216
          ],
          [
            16.547248,
            47.3876798
          ],
          [
            16.547248,
            47.3876982
          ]
        ]
      }
    },
    {
      "type": "Feature",
      "properties": {
        "osm_id": 128196089,
        "name": "Borostyánkő utca",
        "source": "OpenStreetMap / Overpass"
      },
      "geometry": {
        "type": "LineString",
        "coordinates": [
          [
            16.5388917,
            47.3996563
          ],
          [
            16.5387378,
            47.3996271
          ],
          [
            16.5384284,
            47.3996183
          ],
          [
            16.5381521,
            47.3996328
          ],
          [
            16.5379482,
            47.39965
          ],
          [
            16.5378115,
            47.3996682
          ],
          [
            16.5376948,
            47.39969
          ],
          [
            16.5375996,
            47.3997136
          ],
          [
            16.537503,
            47.399749
          ],
          [
            16.5373752,
            47.3998181
          ],
          [
            16.53585,
            47.4006061
          ],
          [
            16.53519,
            47.4008539
          ]
        ]
      }
    },
    {
      "type": "Feature",
      "properties": {
        "osm_id": 128196093,
        "name": "Vámház utca",
        "source": "OpenStreetMap / Overpass"
      },
      "geometry": {
        "type": "LineString",
        "coordinates": [
          [
            16.5427166,
            47.3985045
          ],
          [
            16.5422907,
            47.399099
          ],
          [
            16.5422049,
            47.3991953
          ],
          [
            16.5421086,
            47.3992845
          ],
          [
            16.5420239,
            47.3993432
          ],
          [
            16.5418871,
            47.3994195
          ],
          [
            16.5412098,
            47.399788
          ],
          [
            16.5411226,
            47.3998243
          ],
          [
            16.5410382,
            47.3998425
          ],
          [
            16.5409698,
            47.3998389
          ],
          [
            16.5408665,
            47.3998162
          ],
          [
            16.5407226,
            47.3997706
          ],
          [
            16.5404612,
            47.3996764
          ],
          [
            16.5396608,
            47.3994231
          ],
          [
            16.5395426,
            47.3993857
          ]
        ]
      }
    },
    {
      "type": "Feature",
      "properties": {
        "osm_id": 128196501,
        "name": "Forintos Mátyás utca",
        "source": "OpenStreetMap / Overpass"
      },
      "geometry": {
        "type": "LineString",
        "coordinates": [
          [
            16.5519794,
            47.3820945
          ],
          [
            16.5511864,
            47.3811626
          ],
          [
            16.5511007,
            47.3810955
          ]
        ]
      }
    },
    {
      "type": "Feature",
      "properties": {
        "osm_id": 128196503,
        "name": "Forintos Mátyás utca",
        "source": "OpenStreetMap / Overpass"
      },
      "geometry": {
        "type": "LineString",
        "coordinates": [
          [
            16.5502929,
            47.3806211
          ],
          [
            16.5507558,
            47.3808933
          ],
          [
            16.5511007,
            47.3810955
          ]
        ]
      }
    },
    {
      "type": "Feature",
      "properties": {
        "osm_id": 128198790,
        "name": "Bersek József utca",
        "source": "OpenStreetMap / Overpass"
      },
      "geometry": {
        "type": "LineString",
        "coordinates": [
          [
            16.525056,
            47.3874345
          ],
          [
            16.52584,
            47.3869901
          ],
          [
            16.5268195,
            47.3865921
          ],
          [
            16.5270655,
            47.3865266
          ],
          [
            16.5278316,
            47.3864431
          ],
          [
            16.5283751,
            47.3863024
          ],
          [
            16.5287195,
            47.3862526
          ],
          [
            16.5290323,
            47.3862217
          ],
          [
            16.5293406,
            47.3862303
          ]
        ]
      }
    },
    {
      "type": "Feature",
      "properties": {
        "osm_id": 135646769,
        "name": "Hermina utca",
        "source": "OpenStreetMap / Overpass"
      },
      "geometry": {
        "type": "LineString",
        "coordinates": [
          [
            16.5281776,
            47.379217
          ],
          [
            16.527898,
            47.3793524
          ],
          [
            16.5271831,
            47.3798025
          ]
        ]
      }
    },
    {
      "type": "Feature",
      "properties": {
        "osm_id": 135646954,
        "name": "Dr. Ambró Gyula utca",
        "source": "OpenStreetMap / Overpass"
      },
      "geometry": {
        "type": "LineString",
        "coordinates": [
          [
            16.5432718,
            47.3773744
          ],
          [
            16.5431091,
            47.3774279
          ],
          [
            16.5428194,
            47.3773528
          ],
          [
            16.5423461,
            47.3771914
          ],
          [
            16.5413366,
            47.3768079
          ],
          [
            16.5408203,
            47.3765881
          ],
          [
            16.5396963,
            47.3761097
          ],
          [
            16.539574,
            47.3760577
          ]
        ]
      }
    },
    {
      "type": "Feature",
      "properties": {
        "osm_id": 135698239,
        "name": "Kankalin utca",
        "source": "OpenStreetMap / Overpass"
      },
      "geometry": {
        "type": "LineString",
        "coordinates": [
          [
            16.5243177,
            47.3883024
          ],
          [
            16.5245032,
            47.3883146
          ],
          [
            16.5251576,
            47.3886814
          ],
          [
            16.5256922,
            47.3890195
          ],
          [
            16.525973,
            47.389248
          ],
          [
            16.5261071,
            47.3892843
          ],
          [
            16.5264416,
            47.3892253
          ],
          [
            16.5265595,
            47.3892564
          ]
        ]
      }
    },
    {
      "type": "Feature",
      "properties": {
        "osm_id": 135848459,
        "name": "Lóránt Gyula utca",
        "source": "OpenStreetMap / Overpass"
      },
      "geometry": {
        "type": "LineString",
        "coordinates": [
          [
            16.5469611,
            47.3707617
          ],
          [
            16.5466894,
            47.371147
          ],
          [
            16.5465193,
            47.3714776
          ],
          [
            16.5457428,
            47.3730374
          ],
          [
            16.5453683,
            47.3739727
          ],
          [
            16.5451075,
            47.3743974
          ]
        ]
      }
    },
    {
      "type": "Feature",
      "properties": {
        "osm_id": 136202554,
        "name": "Csőszház utca",
        "source": "OpenStreetMap / Overpass"
      },
      "geometry": {
        "type": "LineString",
        "coordinates": [
          [
            16.5247972,
            47.3797985
          ],
          [
            16.5249277,
            47.3798525
          ],
          [
            16.52586,
            47.3806443
          ],
          [
            16.5263567,
            47.3809416
          ],
          [
            16.5266252,
            47.3810943
          ],
          [
            16.5268635,
            47.3812563
          ],
          [
            16.5273463,
            47.3814997
          ],
          [
            16.5278732,
            47.381772
          ],
          [
            16.5282413,
            47.3819785
          ],
          [
            16.5290358,
            47.3824345
          ],
          [
            16.5294807,
            47.3826577
          ],
          [
            16.5297529,
            47.3827712
          ]
        ]
      }
    },
    {
      "type": "Feature",
      "properties": {
        "osm_id": 136622138,
        "name": "Királyvölgyi utca",
        "source": "OpenStreetMap / Overpass"
      },
      "geometry": {
        "type": "LineString",
        "coordinates": [
          [
            16.5373017,
            47.3932325
          ],
          [
            16.5373651,
            47.3924446
          ]
        ]
      }
    },
    {
      "type": "Feature",
      "properties": {
        "osm_id": 136622148,
        "name": "Erdő utca",
        "source": "OpenStreetMap / Overpass"
      },
      "geometry": {
        "type": "LineString",
        "coordinates": [
          [
            16.5366117,
            47.3940716
          ],
          [
            16.5367872,
            47.3940944
          ],
          [
            16.5369385,
            47.3940814
          ],
          [
            16.5370686,
            47.3940498
          ],
          [
            16.5371702,
            47.3939991
          ],
          [
            16.537403,
            47.3934841
          ],
          [
            16.5374527,
            47.3934279
          ],
          [
            16.5375685,
            47.3934034
          ],
          [
            16.537748,
            47.3933976
          ],
          [
            16.5380854,
            47.3934226
          ],
          [
            16.5382205,
            47.3934356
          ],
          [
            16.5386645,
            47.393473
          ]
        ]
      }
    },
    {
      "type": "Feature",
      "properties": {
        "osm_id": 136795225,
        "name": "Erdő utca",
        "source": "OpenStreetMap / Overpass"
      },
      "geometry": {
        "type": "LineString",
        "coordinates": [
          [
            16.536176,
            47.3948307
          ],
          [
            16.5364877,
            47.3947921
          ],
          [
            16.5366445,
            47.3947633
          ],
          [
            16.5367539,
            47.3946877
          ],
          [
            16.5369951,
            47.3943651
          ],
          [
            16.5371702,
            47.3939991
          ]
        ]
      }
    },
    {
      "type": "Feature",
      "properties": {
        "osm_id": 136795449,
        "name": "Meskó utca",
        "source": "OpenStreetMap / Overpass"
      },
      "geometry": {
        "type": "LineString",
        "coordinates": [
          [
            16.5397214,
            47.3968173
          ],
          [
            16.539515,
            47.3969059
          ],
          [
            16.5390463,
            47.3970038
          ],
          [
            16.5383656,
            47.3970378
          ],
          [
            16.5381009,
            47.3970397
          ]
        ]
      }
    },
    {
      "type": "Feature",
      "properties": {
        "osm_id": 169374281,
        "name": "Dózsa György utca",
        "source": "OpenStreetMap / Overpass"
      },
      "geometry": {
        "type": "LineString",
        "coordinates": [
          [
            16.4963683,
            47.3464121
          ],
          [
            16.4966823,
            47.3467966
          ],
          [
            16.4969426,
            47.3471695
          ],
          [
            16.4970821,
            47.3473099
          ],
          [
            16.4975005,
            47.3476508
          ],
          [
            16.4978525,
            47.3478926
          ]
        ]
      }
    },
    {
      "type": "Feature",
      "properties": {
        "osm_id": 187006350,
        "name": "Hermina utca",
        "source": "OpenStreetMap / Overpass"
      },
      "geometry": {
        "type": "LineString",
        "coordinates": [
          [
            16.5292084,
            47.3810348
          ],
          [
            16.5303146,
            47.3818307
          ]
        ]
      }
    },
    {
      "type": "Feature",
      "properties": {
        "osm_id": 187006372,
        "name": "Hermina utca",
        "source": "OpenStreetMap / Overpass"
      },
      "geometry": {
        "type": "LineString",
        "coordinates": [
          [
            16.5303146,
            47.3818307
          ],
          [
            16.5313911,
            47.3824495
          ],
          [
            16.531977,
            47.3827829
          ],
          [
            16.5321803,
            47.3827649
          ]
        ]
      }
    },
    {
      "type": "Feature",
      "properties": {
        "osm_id": 196748364,
        "name": "Kálvária utca",
        "source": "OpenStreetMap / Overpass"
      },
      "geometry": {
        "type": "LineString",
        "coordinates": [
          [
            16.5342737,
            47.3982584
          ],
          [
            16.5335614,
            47.3989961
          ],
          [
            16.5329673,
            47.3995101
          ]
        ]
      }
    },
    {
      "type": "Feature",
      "properties": {
        "osm_id": 233384993,
        "name": "Dózsa György utca",
        "source": "OpenStreetMap / Overpass"
      },
      "geometry": {
        "type": "LineString",
        "coordinates": [
          [
            16.5446362,
            47.3928649
          ],
          [
            16.5448028,
            47.3928938
          ]
        ]
      }
    },
    {
      "type": "Feature",
      "properties": {
        "osm_id": 233384994,
        "name": "Dózsa György utca",
        "source": "OpenStreetMap / Overpass"
      },
      "geometry": {
        "type": "LineString",
        "coordinates": [
          [
            16.5448028,
            47.3928938
          ],
          [
            16.5449884,
            47.392944
          ],
          [
            16.5458941,
            47.3932357
          ]
        ]
      }
    },
    {
      "type": "Feature",
      "properties": {
        "osm_id": 233486675,
        "name": "Meskó utca",
        "source": "OpenStreetMap / Overpass"
      },
      "geometry": {
        "type": "LineString",
        "coordinates": [
          [
            16.539976,
            47.3970486
          ],
          [
            16.5402269,
            47.3972609
          ],
          [
            16.5403876,
            47.3974035
          ],
          [
            16.5404405,
            47.397453
          ]
        ]
      }
    },
    {
      "type": "Feature",
      "properties": {
        "osm_id": 296686575,
        "name": "Királyvölgyi utca",
        "source": "OpenStreetMap / Overpass"
      },
      "geometry": {
        "type": "LineString",
        "coordinates": [
          [
            16.5386796,
            47.3920775
          ],
          [
            16.538521,
            47.3921348
          ],
          [
            16.5384548,
            47.3921966
          ],
          [
            16.5373651,
            47.3924446
          ]
        ]
      }
    },
    {
      "type": "Feature",
      "properties": {
        "osm_id": 297316469,
        "name": "Dózsa György utca",
        "source": "OpenStreetMap / Overpass"
      },
      "geometry": {
        "type": "LineString",
        "coordinates": [
          [
            16.4978525,
            47.3478926
          ],
          [
            16.4978882,
            47.3480087
          ],
          [
            16.4979236,
            47.3481423
          ],
          [
            16.4979497,
            47.3483207
          ],
          [
            16.4979319,
            47.3484697
          ],
          [
            16.4978867,
            47.3486132
          ],
          [
            16.4978669,
            47.3486574
          ]
        ]
      }
    },
    {
      "type": "Feature",
      "properties": {
        "osm_id": 307590942,
        "name": "Borostyánkő utca",
        "source": "OpenStreetMap / Overpass"
      },
      "geometry": {
        "type": "LineString",
        "coordinates": [
          [
            16.5303922,
            47.4027572
          ],
          [
            16.5304823,
            47.4027391
          ],
          [
            16.5307951,
            47.4027073
          ],
          [
            16.5310279,
            47.4026843
          ],
          [
            16.5311448,
            47.4026746
          ],
          [
            16.5312347,
            47.402671
          ],
          [
            16.5313312,
            47.4026719
          ],
          [
            16.5314868,
            47.4026728
          ],
          [
            16.531575,
            47.4026725
          ],
          [
            16.531688,
            47.4026628
          ],
          [
            16.5317939,
            47.402642
          ],
          [
            16.5318888,
            47.4026166
          ],
          [
            16.5319978,
            47.402583
          ],
          [
            16.5321118,
            47.4025385
          ],
          [
            16.5321842,
            47.4025013
          ],
          [
            16.5322443,
            47.4024551
          ],
          [
            16.5323062,
            47.4023969
          ],
          [
            16.5323784,
            47.4023225
          ],
          [
            16.5324229,
            47.4022816
          ],
          [
            16.5324698,
            47.4022496
          ],
          [
            16.5325195,
            47.4022262
          ],
          [
            16.5325691,
            47.4022135
          ],
          [
            16.5326573,
            47.4022069
          ]
        ]
      }
    },
    {
      "type": "Feature",
      "properties": {
        "osm_id": 307590944,
        "name": "Lékai út",
        "source": "OpenStreetMap / Overpass"
      },
      "geometry": {
        "type": "LineString",
        "coordinates": [
          [
            16.5344375,
            47.4041069
          ],
          [
            16.5340243,
            47.4043057
          ],
          [
            16.5336052,
            47.4044903
          ],
          [
            16.533249,
            47.4046389
          ],
          [
            16.5328558,
            47.4047919
          ],
          [
            16.5325576,
            47.4048922
          ],
          [
            16.5319744,
            47.4050743
          ],
          [
            16.5313393,
            47.405254
          ],
          [
            16.5303549,
            47.4055085
          ],
          [
            16.5284266,
            47.4059916
          ],
          [
            16.5265434,
            47.4064978
          ],
          [
            16.5259479,
            47.4066433
          ],
          [
            16.5255974,
            47.4067189
          ],
          [
            16.525479,
            47.4067446
          ]
        ]
      }
    },
    {
      "type": "Feature",
      "properties": {
        "osm_id": 330002927,
        "name": "Királyvölgyi utca",
        "source": "OpenStreetMap / Overpass"
      },
      "geometry": {
        "type": "LineString",
        "coordinates": [
          [
            16.5371363,
            47.3924921
          ],
          [
            16.5369205,
            47.3924615
          ],
          [
            16.5362137,
            47.3923883
          ],
          [
            16.5360019,
            47.3923584
          ],
          [
            16.5357421,
            47.3922888
          ],
          [
            16.5353429,
            47.3922063
          ],
          [
            16.5345764,
            47.3919771
          ],
          [
            16.5338638,
            47.3918481
          ],
          [
            16.5333117,
            47.3917177
          ],
          [
            16.5329924,
            47.3916399
          ],
          [
            16.5323988,
            47.3914439
          ],
          [
            16.5317784,
            47.391177
          ]
        ]
      }
    },
    {
      "type": "Feature",
      "properties": {
        "osm_id": 330002928,
        "name": "Királyvölgyi utca",
        "source": "OpenStreetMap / Overpass"
      },
      "geometry": {
        "type": "LineString",
        "coordinates": [
          [
            16.5317784,
            47.391177
          ],
          [
            16.5314509,
            47.3910712
          ],
          [
            16.5309699,
            47.3908019
          ],
          [
            16.5305081,
            47.3905597
          ],
          [
            16.5301919,
            47.3905267
          ],
          [
            16.5298901,
            47.3905338
          ],
          [
            16.5296488,
            47.3905295
          ],
          [
            16.5294142,
            47.3904869
          ],
          [
            16.5292829,
            47.3904379
          ]
        ]
      }
    },
    {
      "type": "Feature",
      "properties": {
        "osm_id": 334059476,
        "name": "Kórház utca",
        "source": "OpenStreetMap / Overpass"
      },
      "geometry": {
        "type": "LineString",
        "coordinates": [
          [
            16.5499705,
            47.3881686
          ],
          [
            16.5496815,
            47.3880836
          ],
          [
            16.5495713,
            47.3880558
          ],
          [
            16.5494218,
            47.387958
          ]
        ]
      }
    },
    {
      "type": "Feature",
      "properties": {
        "osm_id": 334172550,
        "name": "Kórház utca",
        "source": "OpenStreetMap / Overpass"
      },
      "geometry": {
        "type": "LineString",
        "coordinates": [
          [
            16.549757,
            47.3872257
          ],
          [
            16.5492961,
            47.3868077
          ]
        ]
      }
    },
    {
      "type": "Feature",
      "properties": {
        "osm_id": 334172551,
        "name": "Kórház utca",
        "source": "OpenStreetMap / Overpass"
      },
      "geometry": {
        "type": "LineString",
        "coordinates": [
          [
            16.5492961,
            47.3868077
          ],
          [
            16.5491757,
            47.3866991
          ]
        ]
      }
    },
    {
      "type": "Feature",
      "properties": {
        "osm_id": 334172553,
        "name": "Kórház utca",
        "source": "OpenStreetMap / Overpass"
      },
      "geometry": {
        "type": "LineString",
        "coordinates": [
          [
            16.5499225,
            47.387364
          ],
          [
            16.549757,
            47.3872257
          ]
        ]
      }
    },
    {
      "type": "Feature",
      "properties": {
        "osm_id": 334616047,
        "name": "Napsugár utca",
        "source": "OpenStreetMap / Overpass"
      },
      "geometry": {
        "type": "LineString",
        "coordinates": [
          [
            16.5213498,
            47.3756746
          ],
          [
            16.5207391,
            47.3756989
          ],
          [
            16.5199049,
            47.3758915
          ],
          [
            16.51928,
            47.3760604
          ],
          [
            16.5186966,
            47.3761199
          ],
          [
            16.5182125,
            47.3761348
          ],
          [
            16.5177565,
            47.3760804
          ],
          [
            16.517157,
            47.3760617
          ],
          [
            16.5165213,
            47.3760763
          ],
          [
            16.5160291,
            47.3760277
          ],
          [
            16.5155142,
            47.3759895
          ],
          [
            16.5147444,
            47.3760658
          ],
          [
            16.5144466,
            47.3761566
          ],
          [
            16.5140175,
            47.3763546
          ],
          [
            16.5134703,
            47.3765199
          ],
          [
            16.5129727,
            47.3767255
          ],
          [
            16.5124808,
            47.3769028
          ]
        ]
      }
    },
    {
      "type": "Feature",
      "properties": {
        "osm_id": 334616048,
        "name": "Napsugár utca",
        "source": "OpenStreetMap / Overpass"
      },
      "geometry": {
        "type": "LineString",
        "coordinates": [
          [
            16.5124808,
            47.3769028
          ],
          [
            16.5119765,
            47.3769791
          ],
          [
            16.5115983,
            47.3771444
          ],
          [
            16.5112589,
            47.3773129
          ],
          [
            16.5111949,
            47.3773686
          ],
          [
            16.5111284,
            47.3774339
          ]
        ]
      }
    },
    {
      "type": "Feature",
      "properties": {
        "osm_id": 345894658,
        "name": "Kálvária utca",
        "source": "OpenStreetMap / Overpass"
      },
      "geometry": {
        "type": "LineString",
        "coordinates": [
          [
            16.5329673,
            47.3995101
          ],
          [
            16.532363,
            47.3999665
          ]
        ]
      }
    },
    {
      "type": "Feature",
      "properties": {
        "osm_id": 357441373,
        "name": "Szelestey László utca",
        "source": "OpenStreetMap / Overpass"
      },
      "geometry": {
        "type": "LineString",
        "coordinates": [
          [
            16.52586,
            47.3806443
          ],
          [
            16.5262397,
            47.380382
          ],
          [
            16.5264994,
            47.3802793
          ],
          [
            16.5267768,
            47.3801842
          ],
          [
            16.5269726,
            47.3800716
          ],
          [
            16.527216,
            47.3798681
          ]
        ]
      }
    },
    {
      "type": "Feature",
      "properties": {
        "osm_id": 366892715,
        "name": "Királyvölgyi utca",
        "source": "OpenStreetMap / Overpass"
      },
      "geometry": {
        "type": "LineString",
        "coordinates": [
          [
            16.5386796,
            47.3920775
          ],
          [
            16.5387586,
            47.3920057
          ],
          [
            16.5387953,
            47.3919201
          ]
        ]
      }
    },
    {
      "type": "Feature",
      "properties": {
        "osm_id": 493599811,
        "name": "Táncsics Mihály utca",
        "source": "OpenStreetMap / Overpass"
      },
      "geometry": {
        "type": "LineString",
        "coordinates": [
          [
            16.5456071,
            47.3889988
          ],
          [
            16.5455482,
            47.3890713
          ]
        ]
      }
    },
    {
      "type": "Feature",
      "properties": {
        "osm_id": 519953387,
        "name": "Dr. Ambró Gyula utca",
        "source": "OpenStreetMap / Overpass"
      },
      "geometry": {
        "type": "LineString",
        "coordinates": [
          [
            16.536936,
            47.3744515
          ],
          [
            16.5367617,
            47.3745659
          ],
          [
            16.5365471,
            47.3746949
          ],
          [
            16.5364564,
            47.3748443
          ],
          [
            16.5365009,
            47.3749068
          ],
          [
            16.5366439,
            47.3749907
          ],
          [
            16.5367003,
            47.375081
          ],
          [
            16.536708,
            47.3752324
          ],
          [
            16.5366113,
            47.3754733
          ],
          [
            16.5364352,
            47.3756505
          ],
          [
            16.5362772,
            47.3757532
          ],
          [
            16.5360261,
            47.3759336
          ],
          [
            16.5357433,
            47.3762108
          ],
          [
            16.535385,
            47.3765365
          ],
          [
            16.5350585,
            47.3766711
          ],
          [
            16.5347835,
            47.3767516
          ],
          [
            16.5342477,
            47.3767903
          ],
          [
            16.5340168,
            47.3768323
          ],
          [
            16.5338327,
            47.3768872
          ],
          [
            16.5330907,
            47.3773043
          ],
          [
            16.5327422,
            47.3774932
          ],
          [
            16.5324671,
            47.377606
          ],
          [
            16.5323029,
            47.3776884
          ],
          [
            16.5321278,
            47.3778708
          ],
          [
            16.5320864,
            47.378003
          ]
        ]
      }
    },
    {
      "type": "Feature",
      "properties": {
        "osm_id": 519954290,
        "name": "Posztógyár utca",
        "source": "OpenStreetMap / Overpass"
      },
      "geometry": {
        "type": "LineString",
        "coordinates": [
          [
            16.5520586,
            47.380315
          ],
          [
            16.5514272,
            47.3800414
          ],
          [
            16.5508505,
            47.3798144
          ],
          [
            16.5504662,
            47.3796543
          ],
          [
            16.5504108,
            47.3796258
          ],
          [
            16.549724,
            47.379324
          ],
          [
            16.5495429,
            47.3792615
          ]
        ]
      }
    },
    {
      "type": "Feature",
      "properties": {
        "osm_id": 519990634,
        "name": "Freh Alfonz utca",
        "source": "OpenStreetMap / Overpass"
      },
      "geometry": {
        "type": "LineString",
        "coordinates": [
          [
            16.5324936,
            47.3881741
          ],
          [
            16.5306635,
            47.3873721
          ]
        ]
      }
    },
    {
      "type": "Feature",
      "properties": {
        "osm_id": 520318395,
        "name": "Vízmű utca",
        "source": "OpenStreetMap / Overpass"
      },
      "geometry": {
        "type": "LineString",
        "coordinates": [
          [
            16.5455927,
            47.3765517
          ],
          [
            16.5452228,
            47.3769415
          ],
          [
            16.5450538,
            47.3771196
          ],
          [
            16.5447019,
            47.3774658
          ],
          [
            16.5443854,
            47.3776401
          ],
          [
            16.5440643,
            47.377787
          ],
          [
            16.5439411,
            47.3778407
          ]
        ]
      }
    },
    {
      "type": "Feature",
      "properties": {
        "osm_id": 520318531,
        "name": "Posztógyár utca",
        "source": "OpenStreetMap / Overpass"
      },
      "geometry": {
        "type": "LineString",
        "coordinates": [
          [
            16.5478659,
            47.3784405
          ],
          [
            16.5476321,
            47.378645
          ]
        ]
      }
    },
    {
      "type": "Feature",
      "properties": {
        "osm_id": 520318532,
        "name": "Posztógyár utca",
        "source": "OpenStreetMap / Overpass"
      },
      "geometry": {
        "type": "LineString",
        "coordinates": [
          [
            16.5478659,
            47.3784405
          ],
          [
            16.5478975,
            47.3782284
          ],
          [
            16.5482953,
            47.3774143
          ],
          [
            16.5483863,
            47.377238
          ]
        ]
      }
    },
    {
      "type": "Feature",
      "properties": {
        "osm_id": 520318581,
        "name": "Lóránt Gyula utca",
        "source": "OpenStreetMap / Overpass"
      },
      "geometry": {
        "type": "LineString",
        "coordinates": [
          [
            16.5443903,
            47.3763257
          ],
          [
            16.5443371,
            47.3765044
          ],
          [
            16.5442277,
            47.3768725
          ],
          [
            16.543958,
            47.3772573
          ],
          [
            16.5437529,
            47.3773271
          ],
          [
            16.5434554,
            47.3774973
          ]
        ]
      }
    },
    {
      "type": "Feature",
      "properties": {
        "osm_id": 520321674,
        "name": "Szent György utca",
        "source": "OpenStreetMap / Overpass"
      },
      "geometry": {
        "type": "LineString",
        "coordinates": [
          [
            16.5229609,
            47.3817689
          ],
          [
            16.52432,
            47.3828363
          ],
          [
            16.5250147,
            47.383292
          ],
          [
            16.5270463,
            47.3839404
          ],
          [
            16.5272416,
            47.3840236
          ],
          [
            16.5274965,
            47.384175
          ],
          [
            16.5279496,
            47.384444
          ],
          [
            16.5286732,
            47.3848678
          ]
        ]
      }
    },
    {
      "type": "Feature",
      "properties": {
        "osm_id": 520322349,
        "name": "Szent Anna utca",
        "source": "OpenStreetMap / Overpass"
      },
      "geometry": {
        "type": "LineString",
        "coordinates": [
          [
            16.5323682,
            47.3893444
          ],
          [
            16.532815,
            47.3887806
          ],
          [
            16.5328351,
            47.3887086
          ],
          [
            16.5328072,
            47.3886361
          ],
          [
            16.5323072,
            47.3884428
          ]
        ]
      }
    },
    {
      "type": "Feature",
      "properties": {
        "osm_id": 520339356,
        "name": "Lékai út",
        "source": "OpenStreetMap / Overpass"
      },
      "geometry": {
        "type": "LineString",
        "coordinates": [
          [
            16.5383149,
            47.4018944
          ],
          [
            16.5382218,
            47.40198
          ],
          [
            16.5376376,
            47.4025412
          ],
          [
            16.5373132,
            47.4027726
          ],
          [
            16.5369621,
            47.4029615
          ],
          [
            16.5366445,
            47.4031127
          ],
          [
            16.5356578,
            47.4035428
          ],
          [
            16.5352545,
            47.4037186
          ],
          [
            16.5344375,
            47.4041069
          ]
        ]
      }
    },
    {
      "type": "Feature",
      "properties": {
        "osm_id": 580394362,
        "name": "Kálvária utca",
        "source": "OpenStreetMap / Overpass"
      },
      "geometry": {
        "type": "LineString",
        "coordinates": [
          [
            16.5375487,
            47.3966873
          ],
          [
            16.5375756,
            47.3964625
          ],
          [
            16.537626,
            47.3960646
          ],
          [
            16.5376107,
            47.3959214
          ]
        ]
      }
    },
    {
      "type": "Feature",
      "properties": {
        "osm_id": 762952523,
        "name": "Liszt Ferenc utca",
        "source": "OpenStreetMap / Overpass"
      },
      "geometry": {
        "type": "LineString",
        "coordinates": [
          [
            16.5476069,
            47.3880505
          ],
          [
            16.5473576,
            47.3877763
          ]
        ]
      }
    },
    {
      "type": "Feature",
      "properties": {
        "osm_id": 777827299,
        "name": "Táncsics Mihály utca",
        "source": "OpenStreetMap / Overpass"
      },
      "geometry": {
        "type": "LineString",
        "coordinates": [
          [
            16.5459623,
            47.3886201
          ],
          [
            16.5466461,
            47.3889211
          ],
          [
            16.5466648,
            47.3889653
          ],
          [
            16.5466189,
            47.3890133
          ],
          [
            16.5465416,
            47.3890081
          ],
          [
            16.545869,
            47.3887214
          ]
        ]
      }
    },
    {
      "type": "Feature",
      "properties": {
        "osm_id": 781604786,
        "name": "Sörgyár utca",
        "source": "OpenStreetMap / Overpass"
      },
      "geometry": {
        "type": "LineString",
        "coordinates": [
          [
            16.5384144,
            47.402187
          ],
          [
            16.5383925,
            47.4021059
          ],
          [
            16.5383591,
            47.4020186
          ],
          [
            16.5383149,
            47.4018944
          ]
        ]
      }
    },
    {
      "type": "Feature",
      "properties": {
        "osm_id": 810452545,
        "name": "Posztógyár utca",
        "source": "OpenStreetMap / Overpass"
      },
      "geometry": {
        "type": "LineString",
        "coordinates": [
          [
            16.5476321,
            47.378645
          ],
          [
            16.5476388,
            47.378852
          ],
          [
            16.5477972,
            47.3791326
          ]
        ]
      }
    },
    {
      "type": "Feature",
      "properties": {
        "osm_id": 826171234,
        "name": "Erdő utca",
        "source": "OpenStreetMap / Overpass"
      },
      "geometry": {
        "type": "LineString",
        "coordinates": [
          [
            16.5361959,
            47.395817
          ],
          [
            16.5363634,
            47.3956126
          ],
          [
            16.5365829,
            47.3954469
          ],
          [
            16.5367668,
            47.3953046
          ],
          [
            16.5368579,
            47.3951194
          ],
          [
            16.5367716,
            47.3949273
          ],
          [
            16.5367967,
            47.3947809
          ],
          [
            16.5367539,
            47.3946877
          ]
        ]
      }
    },
    {
      "type": "Feature",
      "properties": {
        "osm_id": 997668376,
        "name": "Táncsics Mihály utca",
        "source": "OpenStreetMap / Overpass"
      },
      "geometry": {
        "type": "LineString",
        "coordinates": [
          [
            16.5455482,
            47.3890713
          ],
          [
            16.5454223,
            47.3892117
          ]
        ]
      }
    },
    {
      "type": "Feature",
      "properties": {
        "osm_id": 1102157962,
        "name": "Kórház utca",
        "source": "OpenStreetMap / Overpass"
      },
      "geometry": {
        "type": "LineString",
        "coordinates": [
          [
            16.549599,
            47.3885935
          ],
          [
            16.5497627,
            47.3883113
          ],
          [
            16.5498152,
            47.3882206
          ]
        ]
      }
    },
    {
      "type": "Feature",
      "properties": {
        "osm_id": 1102163127,
        "name": "Forintos Mátyás utca",
        "source": "OpenStreetMap / Overpass"
      },
      "geometry": {
        "type": "LineString",
        "coordinates": [
          [
            16.5490742,
            47.38009
          ],
          [
            16.549767,
            47.3803685
          ],
          [
            16.549853,
            47.3804031
          ],
          [
            16.5502929,
            47.3806211
          ]
        ]
      }
    },
    {
      "type": "Feature",
      "properties": {
        "osm_id": 1102163128,
        "name": "Forintos Mátyás utca",
        "source": "OpenStreetMap / Overpass"
      },
      "geometry": {
        "type": "LineString",
        "coordinates": [
          [
            16.5507558,
            47.3808933
          ],
          [
            16.5508058,
            47.380654
          ],
          [
            16.5503749,
            47.3800763
          ]
        ]
      }
    },
    {
      "type": "Feature",
      "properties": {
        "osm_id": 1102334358,
        "name": "Sáncárok utca",
        "source": "OpenStreetMap / Overpass"
      },
      "geometry": {
        "type": "LineString",
        "coordinates": [
          [
            16.5468918,
            47.3862239
          ],
          [
            16.5464298,
            47.3860232
          ],
          [
            16.5461965,
            47.3859126
          ]
        ]
      }
    },
    {
      "type": "Feature",
      "properties": {
        "osm_id": 1102363480,
        "name": "Dr. Ambró Gyula utca",
        "source": "OpenStreetMap / Overpass"
      },
      "geometry": {
        "type": "LineString",
        "coordinates": [
          [
            16.5379077,
            47.3752416
          ],
          [
            16.537858,
            47.3751516
          ],
          [
            16.5377502,
            47.3750228
          ],
          [
            16.5375709,
            47.3748977
          ],
          [
            16.5373578,
            47.3747729
          ],
          [
            16.5371206,
            47.3746143
          ],
          [
            16.536936,
            47.3744515
          ]
        ]
      }
    },
    {
      "type": "Feature",
      "properties": {
        "osm_id": 1102363481,
        "name": "Dr. Ambró Gyula utca",
        "source": "OpenStreetMap / Overpass"
      },
      "geometry": {
        "type": "LineString",
        "coordinates": [
          [
            16.5380078,
            47.3753194
          ],
          [
            16.5379077,
            47.3752416
          ]
        ]
      }
    },
    {
      "type": "Feature",
      "properties": {
        "osm_id": 1102363482,
        "name": "Dr. Ambró Gyula utca",
        "source": "OpenStreetMap / Overpass"
      },
      "geometry": {
        "type": "LineString",
        "coordinates": [
          [
            16.539574,
            47.3760577
          ],
          [
            16.5390356,
            47.375838
          ],
          [
            16.538541,
            47.3756104
          ]
        ]
      }
    },
    {
      "type": "Feature",
      "properties": {
        "osm_id": 1102369432,
        "name": "Dr. Ambró Gyula utca",
        "source": "OpenStreetMap / Overpass"
      },
      "geometry": {
        "type": "LineString",
        "coordinates": [
          [
            16.538541,
            47.3756104
          ],
          [
            16.5384344,
            47.3755586
          ],
          [
            16.5382408,
            47.3754577
          ],
          [
            16.5380078,
            47.3753194
          ]
        ]
      }
    },
    {
      "type": "Feature",
      "properties": {
        "osm_id": 1102369433,
        "name": "Fehér sáfrány utca",
        "source": "OpenStreetMap / Overpass"
      },
      "geometry": {
        "type": "LineString",
        "coordinates": [
          [
            16.538541,
            47.3756104
          ],
          [
            16.5390142,
            47.3749569
          ]
        ]
      }
    },
    {
      "type": "Feature",
      "properties": {
        "osm_id": 1103256040,
        "name": "Liszt Ferenc utca",
        "source": "OpenStreetMap / Overpass"
      },
      "geometry": {
        "type": "LineString",
        "coordinates": [
          [
            16.5473576,
            47.3877763
          ],
          [
            16.547248,
            47.3876982
          ]
        ]
      }
    },
    {
      "type": "Feature",
      "properties": {
        "osm_id": 1103555716,
        "name": "Táncsics Mihály utca",
        "source": "OpenStreetMap / Overpass"
      },
      "geometry": {
        "type": "LineString",
        "coordinates": [
          [
            16.5445478,
            47.3903178
          ],
          [
            16.5443306,
            47.3906005
          ]
        ]
      }
    },
    {
      "type": "Feature",
      "properties": {
        "osm_id": 1103555717,
        "name": "Táncsics Mihály utca",
        "source": "OpenStreetMap / Overpass"
      },
      "geometry": {
        "type": "LineString",
        "coordinates": [
          [
            16.5447233,
            47.3900729
          ],
          [
            16.5445478,
            47.3903178
          ]
        ]
      }
    },
    {
      "type": "Feature",
      "properties": {
        "osm_id": 1104101199,
        "name": "Kálvária utca",
        "source": "OpenStreetMap / Overpass"
      },
      "geometry": {
        "type": "LineString",
        "coordinates": [
          [
            16.5361959,
            47.395817
          ],
          [
            16.5367361,
            47.396206
          ],
          [
            16.5368884,
            47.3963267
          ]
        ]
      }
    },
    {
      "type": "Feature",
      "properties": {
        "osm_id": 1104438902,
        "name": "Arborétum utca",
        "source": "OpenStreetMap / Overpass"
      },
      "geometry": {
        "type": "LineString",
        "coordinates": [
          [
            16.5306635,
            47.3873721
          ],
          [
            16.5308874,
            47.3871601
          ],
          [
            16.5316863,
            47.3864665
          ],
          [
            16.5318954,
            47.3863132
          ],
          [
            16.5320493,
            47.3862678
          ],
          [
            16.5321172,
            47.3862477
          ]
        ]
      }
    },
    {
      "type": "Feature",
      "properties": {
        "osm_id": 1104446276,
        "name": "Bersek József utca",
        "source": "OpenStreetMap / Overpass"
      },
      "geometry": {
        "type": "LineString",
        "coordinates": [
          [
            16.5231363,
            47.3880361
          ],
          [
            16.5244256,
            47.3876197
          ],
          [
            16.525056,
            47.3874345
          ]
        ]
      }
    },
    {
      "type": "Feature",
      "properties": {
        "osm_id": 1104463486,
        "name": "Királyvölgyi utca",
        "source": "OpenStreetMap / Overpass"
      },
      "geometry": {
        "type": "LineString",
        "coordinates": [
          [
            16.5362611,
            47.3922677
          ],
          [
            16.5372097,
            47.3924333
          ],
          [
            16.5373651,
            47.3924446
          ]
        ]
      }
    },
    {
      "type": "Feature",
      "properties": {
        "osm_id": 1104463487,
        "name": "Királyvölgyi utca",
        "source": "OpenStreetMap / Overpass"
      },
      "geometry": {
        "type": "LineString",
        "coordinates": [
          [
            16.5373651,
            47.3924446
          ],
          [
            16.5371363,
            47.3924921
          ]
        ]
      }
    },
    {
      "type": "Feature",
      "properties": {
        "osm_id": 1104503142,
        "name": "Sörgyár utca",
        "source": "OpenStreetMap / Overpass"
      },
      "geometry": {
        "type": "LineString",
        "coordinates": [
          [
            16.5385088,
            47.4027518
          ],
          [
            16.5384781,
            47.4025573
          ],
          [
            16.5384325,
            47.402295
          ]
        ]
      }
    },
    {
      "type": "Feature",
      "properties": {
        "osm_id": 1104503145,
        "name": "Sörgyár utca",
        "source": "OpenStreetMap / Overpass"
      },
      "geometry": {
        "type": "LineString",
        "coordinates": [
          [
            16.5384325,
            47.402295
          ],
          [
            16.5384144,
            47.402187
          ]
        ]
      }
    },
    {
      "type": "Feature",
      "properties": {
        "osm_id": 1105038361,
        "name": "Csőszház utca",
        "source": "OpenStreetMap / Overpass"
      },
      "geometry": {
        "type": "LineString",
        "coordinates": [
          [
            16.5247972,
            47.3797985
          ],
          [
            16.5248802,
            47.3796664
          ],
          [
            16.5249394,
            47.379591
          ],
          [
            16.5254966,
            47.3793975
          ],
          [
            16.5259505,
            47.3793196
          ],
          [
            16.5265335,
            47.3793062
          ]
        ]
      }
    },
    {
      "type": "Feature",
      "properties": {
        "osm_id": 1105189899,
        "name": "Bersek József utca",
        "source": "OpenStreetMap / Overpass"
      },
      "geometry": {
        "type": "LineString",
        "coordinates": [
          [
            16.5217014,
            47.3882432
          ],
          [
            16.5218926,
            47.3882201
          ],
          [
            16.5231363,
            47.3880361
          ]
        ]
      }
    },
    {
      "type": "Feature",
      "properties": {
        "osm_id": 1105194177,
        "name": "Panoráma körút",
        "source": "OpenStreetMap / Overpass"
      },
      "geometry": {
        "type": "LineString",
        "coordinates": [
          [
            16.5297885,
            47.3759106
          ],
          [
            16.5306347,
            47.3766023
          ],
          [
            16.5308148,
            47.3767634
          ]
        ]
      }
    },
    {
      "type": "Feature",
      "properties": {
        "osm_id": 1105826263,
        "name": "Napsugár utca",
        "source": "OpenStreetMap / Overpass"
      },
      "geometry": {
        "type": "LineString",
        "coordinates": [
          [
            16.5219692,
            47.3758916
          ],
          [
            16.5215833,
            47.3757113
          ],
          [
            16.5213498,
            47.3756746
          ]
        ]
      }
    },
    {
      "type": "Feature",
      "properties": {
        "osm_id": 1107954143,
        "name": "Lóránt Gyula utca",
        "source": "OpenStreetMap / Overpass"
      },
      "geometry": {
        "type": "LineString",
        "coordinates": [
          [
            16.5445632,
            47.3754473
          ],
          [
            16.5444661,
            47.3757949
          ],
          [
            16.5443903,
            47.3763257
          ]
        ]
      }
    },
    {
      "type": "Feature",
      "properties": {
        "osm_id": 1107954144,
        "name": "Posztógyár utca",
        "source": "OpenStreetMap / Overpass"
      },
      "geometry": {
        "type": "LineString",
        "coordinates": [
          [
            16.5483863,
            47.377238
          ],
          [
            16.5485082,
            47.3769471
          ],
          [
            16.5485746,
            47.3765302
          ],
          [
            16.5485547,
            47.3763414
          ]
        ]
      }
    },
    {
      "type": "Feature",
      "properties": {
        "osm_id": 1236043434,
        "name": "Strand sétány",
        "source": "OpenStreetMap / Overpass"
      },
      "geometry": {
        "type": "LineString",
        "coordinates": [
          [
            16.5486983,
            47.3906925
          ],
          [
            16.5483581,
            47.3905109
          ],
          [
            16.547936,
            47.3903618
          ]
        ]
      }
    },
    {
      "type": "Feature",
      "properties": {
        "osm_id": 1275361335,
        "name": "Vízmű utca",
        "source": "OpenStreetMap / Overpass"
      },
      "geometry": {
        "type": "LineString",
        "coordinates": [
          [
            16.5462716,
            47.3758365
          ],
          [
            16.5455927,
            47.3765517
          ]
        ]
      }
    },
    {
      "type": "Feature",
      "properties": {
        "osm_id": 1275364368,
        "name": "Szent Anna utca",
        "source": "OpenStreetMap / Overpass"
      },
      "geometry": {
        "type": "LineString",
        "coordinates": [
          [
            16.5316009,
            47.3893777
          ],
          [
            16.5320939,
            47.3895377
          ],
          [
            16.5322721,
            47.3894959
          ],
          [
            16.5323682,
            47.3893444
          ]
        ]
      }
    },
    {
      "type": "Feature",
      "properties": {
        "osm_id": 1275367484,
        "name": "Borostyánkő utca",
        "source": "OpenStreetMap / Overpass"
      },
      "geometry": {
        "type": "LineString",
        "coordinates": [
          [
            16.53519,
            47.4008539
          ],
          [
            16.534777,
            47.4010122
          ],
          [
            16.5344245,
            47.4012216
          ],
          [
            16.5342885,
            47.4014029
          ],
          [
            16.5341676,
            47.4017274
          ],
          [
            16.5336633,
            47.4022647
          ]
        ]
      }
    },
    {
      "type": "Feature",
      "properties": {
        "osm_id": 1356654701,
        "name": "Lóránt Gyula utca",
        "source": "OpenStreetMap / Overpass"
      },
      "geometry": {
        "type": "LineString",
        "coordinates": [
          [
            16.5451075,
            47.3743974
          ],
          [
            16.5447495,
            47.3750789
          ],
          [
            16.5445632,
            47.3754473
          ]
        ]
      }
    },
    {
      "type": "Feature",
      "properties": {
        "osm_id": 1444496431,
        "name": "Lóránt Gyula utca",
        "source": "OpenStreetMap / Overpass"
      },
      "geometry": {
        "type": "LineString",
        "coordinates": [
          [
            16.543958,
            47.3772573
          ],
          [
            16.5439089,
            47.3774069
          ],
          [
            16.543856,
            47.3776011
          ],
          [
            16.5437211,
            47.3776772
          ]
        ]
      }
    },
    {
      "type": "Feature",
      "properties": {
        "osm_id": 1464142890,
        "name": "Dózsa György utca",
        "source": "OpenStreetMap / Overpass"
      },
      "geometry": {
        "type": "LineString",
        "coordinates": [
          [
            16.4962482,
            47.3463375
          ],
          [
            16.4963683,
            47.3464121
          ]
        ]
      }
    }
  ]
}